start=new Date('2023-02-13T00:00:00.000Z').valueOf();
sats=[{"ECCENTRICITY":"0.00012030","RA_OF_ASC_NODE":"239.7824","SEMIMAJOR_AXIS":"6925.364","COUNTRY_CODE":"US","OBJECT_NAME":"STARLINK-1194","FILE":"3787692","TLE_LINE2":"2 45101  53.0529 239.7824 0001203  90.7829 269.3298 15.06394897168032","APOAPSIS":"548.062","OBJECT_ID":"2020-006BK","RCS_SIZE":"LARGE","SITE":"AFETR","MEAN_ANOMALY":"269.3298","MEAN_ELEMENT_THEORY":"SGP4","DECAY_DATE":null,"REF_FRAME":"TEME","OBJECT_TYPE":"PAYLOAD","CENTER_NAME":"EARTH","LAUNCH_DATE":"2020-01-29","MEAN_MOTION_DOT":"0.00000141","NORAD_CAT_ID":"45101","ELEMENT_SET_NO":"999","PERIOD":"95.592","REV_AT_EPOCH":"16803","BSTAR":"0.00002835700000","PERIAPSIS":"546.396","MEAN_MOTION":"15.06394897","EPHEMERIS_TYPE":"0","ARG_OF_PERICENTER":"90.7829","CLASSIFICATION_TYPE":"U","INCLINATION":"53.0529","GP_ID":"225232317","TIME_SYSTEM":"UTC","EPOCH":"2023-02-12T12:13:38.350560","MEAN_MOTION_DDOT":"0.0000000000000","TLE_LINE1":"1 45101U 20006BK  23043.50947165  .00000141  00000-0  28357-4 0  9993"},{"MEAN_MOTION":"15.06394798","PERIAPSIS":"546.322","CLASSIFICATION_TYPE":"U","ARG_OF_PERICENTER":"75.8366","EPHEMERIS_TYPE":"0","INCLINATION":"53.0521","GP_ID":"225232567","TIME_SYSTEM":"UTC","EPOCH":"2023-02-12T12:46:50.960928","MEAN_MOTION_DDOT":"0.0000000000000","TLE_LINE1":"1 45102U 20006BL  23043.53253427  .00002238  00000-0  16909-3 0  9996","OBJECT_TYPE":"PAYLOAD","REF_FRAME":"TEME","DECAY_DATE":null,"CENTER_NAME":"EARTH","LAUNCH_DATE":"2020-01-29","MEAN_MOTION_DOT":"0.00002238","NORAD_CAT_ID":"45102","ELEMENT_SET_NO":"999","PERIOD":"95.592","BSTAR":"0.00016909000000","REV_AT_EPOCH":"16803","OBJECT_ID":"2020-006BL","RCS_SIZE":"LARGE","SITE":"AFETR","MEAN_ANOMALY":"284.2769","MEAN_ELEMENT_THEORY":"SGP4","ECCENTRICITY":"0.00013100","RA_OF_ASC_NODE":"239.6905","SEMIMAJOR_AXIS":"6925.365","FILE":"3787692","OBJECT_NAME":"STARLINK-1195","COUNTRY_CODE":"US","APOAPSIS":"548.137","TLE_LINE2":"2 45102  53.0521 239.6905 0001310  75.8366 284.2769 15.06394798168032"},{"ECCENTRICITY":"0.00015890","RA_OF_ASC_NODE":"240.6021","COUNTRY_CODE":"US","OBJECT_NAME":"STARLINK-1196","FILE":"3787692","TLE_LINE2":"2 45103  53.0540 240.6021 0001589 148.3370 211.7716 15.08121042168358","APOAPSIS":"543.043","SEMIMAJOR_AXIS":"6920.079","RCS_SIZE":"LARGE","OBJECT_ID":"2020-006BM","MEAN_ELEMENT_THEORY":"SGP4","MEAN_ANOMALY":"211.7716","SITE":"AFETR","CENTER_NAME":"EARTH","LAUNCH_DATE":"2020-01-29","NORAD_CAT_ID":"45103","MEAN_MOTION_DOT":"0.00016332","REF_FRAME":"TEME","DECAY_DATE":null,"OBJECT_TYPE":"PAYLOAD","PERIOD":"95.483","REV_AT_EPOCH":"16835","BSTAR":"0.00106230000000","ELEMENT_SET_NO":"999","INCLINATION":"53.0540","TIME_SYSTEM":"UTC","GP_ID":"225232807","PERIAPSIS":"540.844","MEAN_MOTION":"15.08121042","EPHEMERIS_TYPE":"0","ARG_OF_PERICENTER":"148.3370","CLASSIFICATION_TYPE":"U","TLE_LINE1":"1 45103U 20006BM  23043.27919709  .00016332  00000-0  10623-2 0  9996","EPOCH":"2023-02-12T06:42:02.628576","MEAN_MOTION_DDOT":"0.0000000000000"},{"TLE_LINE1":"1 45178U 20012A   23043.41826765  .00021040  00000-0  14271-2 0  9995","EPOCH":"2023-02-12T10:02:18.324960","MEAN_MOTION_DDOT":"0.0000000000000","INCLINATION":"53.0550","TIME_SYSTEM":"UTC","GP_ID":"225233311","MEAN_MOTION":"15.06401188","PERIAPSIS":"545.808","CLASSIFICATION_TYPE":"U","ARG_OF_PERICENTER":"98.0523","EPHEMERIS_TYPE":"0","PERIOD":"95.592","BSTAR":"0.00142710000000","REV_AT_EPOCH":"16577","ELEMENT_SET_NO":"999","LAUNCH_DATE":"2020-02-17","CENTER_NAME":"EARTH","NORAD_CAT_ID":"45178","MEAN_MOTION_DOT":"0.00021040","OBJECT_TYPE":"PAYLOAD","REF_FRAME":"TEME","DECAY_DATE":null,"MEAN_ELEMENT_THEORY":"SGP4","MEAN_ANOMALY":"262.0696","SITE":"AFETR","RCS_SIZE":"LARGE","OBJECT_ID":"2020-012A","FILE":"3787692","COUNTRY_CODE":"US","OBJECT_NAME":"STARLINK-1138","APOAPSIS":"548.612","TLE_LINE2":"2 45178  53.0550  40.2023 0002025  98.0523 262.0696 15.06401188165773","SEMIMAJOR_AXIS":"6925.345","ECCENTRICITY":"0.00020250","RA_OF_ASC_NODE":"40.2023"},{"OBJECT_TYPE":"PAYLOAD","REF_FRAME":"TEME","DECAY_DATE":null,"NORAD_CAT_ID":"45179","MEAN_MOTION_DOT":"0.00001441","CENTER_NAME":"EARTH","LAUNCH_DATE":"2020-02-17","ELEMENT_SET_NO":"999","BSTAR":"0.00011562000000","REV_AT_EPOCH":"16582","PERIOD":"95.593","CLASSIFICATION_TYPE":"U","ARG_OF_PERICENTER":"99.5559","EPHEMERIS_TYPE":"0","MEAN_MOTION":"15.06392949","PERIAPSIS":"546.019","TIME_SYSTEM":"UTC","GP_ID":"225232076","INCLINATION":"53.0569","MEAN_MOTION_DDOT":"0.0000000000000","EPOCH":"2023-02-12T08:30:43.355808","TLE_LINE1":"1 45179U 20012B   23043.35466847  .00001441  00000-0  11562-3 0  9994","RA_OF_ASC_NODE":"40.4908","ECCENTRICITY":"0.00017560","SEMIMAJOR_AXIS":"6925.370","APOAPSIS":"548.451","TLE_LINE2":"2 45179  53.0569  40.4908 0001756  99.5559 260.5629 15.06392949165822","FILE":"3787692","COUNTRY_CODE":"US","OBJECT_NAME":"STARLINK-1143","OBJECT_ID":"2020-012B","RCS_SIZE":"LARGE","SITE":"AFETR","MEAN_ANOMALY":"260.5629","MEAN_ELEMENT_THEORY":"SGP4"},{"BSTAR":"0.00322630000000","REV_AT_EPOCH":"16541","PERIOD":"94.690","ELEMENT_SET_NO":"999","NORAD_CAT_ID":"45180","MEAN_MOTION_DOT":"0.00072336","LAUNCH_DATE":"2020-02-17","CENTER_NAME":"EARTH","OBJECT_TYPE":"PAYLOAD","DECAY_DATE":null,"REF_FRAME":"TEME","TLE_LINE1":"1 45180U 20012C   23043.63601182  .00072336  00000-0  32263-2 0  9991","MEAN_MOTION_DDOT":"0.0000000000000","EPOCH":"2023-02-12T15:15:51.421248","TIME_SYSTEM":"UTC","GP_ID":"225272241","INCLINATION":"53.0519","CLASSIFICATION_TYPE":"U","ARG_OF_PERICENTER":"74.2305","EPHEMERIS_TYPE":"0","MEAN_MOTION":"15.20758934","PERIAPSIS":"501.423","APOAPSIS":"505.681","TLE_LINE2":"2 45180  53.0519  25.4315 0003094  74.2305 285.9031 15.20758934165419","FILE":"3787957","COUNTRY_CODE":"US","OBJECT_NAME":"STARLINK-1192","SEMIMAJOR_AXIS":"6881.687","RA_OF_ASC_NODE":"25.4315","ECCENTRICITY":"0.00030940","MEAN_ELEMENT_THEORY":"SGP4","SITE":"AFETR","MEAN_ANOMALY":"285.9031","RCS_SIZE":"LARGE","OBJECT_ID":"2020-012C"},{"MEAN_MOTION_DDOT":"0.0000000000000","EPOCH":"2023-02-12T16:08:32.351424","TLE_LINE1":"1 45181U 20012D   23043.67259666 -.00001594  00000-0 -88111-4 0  9997","CLASSIFICATION_TYPE":"U","EPHEMERIS_TYPE":"0","ARG_OF_PERICENTER":"95.9690","MEAN_MOTION":"15.06387195","PERIAPSIS":"545.123","TIME_SYSTEM":"UTC","GP_ID":"225272658","INCLINATION":"53.0542","ELEMENT_SET_NO":"999","BSTAR":"-0.00008811100000","REV_AT_EPOCH":"16522","PERIOD":"95.593","OBJECT_TYPE":"PAYLOAD","DECAY_DATE":null,"REF_FRAME":"TEME","MEAN_MOTION_DOT":"-0.00001594","NORAD_CAT_ID":"45181","LAUNCH_DATE":"2020-02-17","CENTER_NAME":"EARTH","SITE":"AFETR","MEAN_ANOMALY":"264.1649","MEAN_ELEMENT_THEORY":"SGP4","OBJECT_ID":"2020-012D","RCS_SIZE":"LARGE","SEMIMAJOR_AXIS":"6925.388","APOAPSIS":"549.382","TLE_LINE2":"2 45181  53.0542  39.0573 0003075  95.9690 264.1649 15.06387195165223","FILE":"3787957","COUNTRY_CODE":"US","OBJECT_NAME":"STARLINK-1200","RA_OF_ASC_NODE":"39.0573","ECCENTRICITY":"0.00030750"},{"TLE_LINE1":"1 45182U 20012E   23043.29478521  .00012762  00000-0  87393-3 0  9996","EPOCH":"2023-02-12T07:04:29.442144","MEAN_MOTION_DDOT":"0.0000000000000","INCLINATION":"53.0563","TIME_SYSTEM":"UTC","GP_ID":"225232814","MEAN_MOTION":"15.06405961","PERIAPSIS":"546.088","CLASSIFICATION_TYPE":"U","EPHEMERIS_TYPE":"0","ARG_OF_PERICENTER":"111.4087","PERIOD":"95.592","BSTAR":"0.00087393000000","REV_AT_EPOCH":"16594","ELEMENT_SET_NO":"999","CENTER_NAME":"EARTH","LAUNCH_DATE":"2020-02-17","NORAD_CAT_ID":"45182","MEAN_MOTION_DOT":"0.00012762","OBJECT_TYPE":"PAYLOAD","REF_FRAME":"TEME","DECAY_DATE":null,"MEAN_ELEMENT_THEORY":"SGP4","MEAN_ANOMALY":"248.7073","SITE":"AFETR","RCS_SIZE":"LARGE","OBJECT_ID":"2020-012E","FILE":"3787692","COUNTRY_CODE":"US","OBJECT_NAME":"STARLINK-1201","APOAPSIS":"548.303","TLE_LINE2":"2 45182  53.0563  20.7581 0001599 111.4087 248.7073 15.06405961165946","SEMIMAJOR_AXIS":"6925.330","ECCENTRICITY":"0.00015990","RA_OF_ASC_NODE":"20.7581"},{"MEAN_ELEMENT_THEORY":"SGP4","SITE":"AFETR","MEAN_ANOMALY":"272.1680","RCS_SIZE":"LARGE","OBJECT_ID":"2020-012F","COUNTRY_CODE":"US","OBJECT_NAME":"STARLINK-1202","FILE":"3787957","TLE_LINE2":"2 45183  53.0531  38.8967 0002207  87.9562 272.1680 15.06395175165223","APOAPSIS":"548.757","SEMIMAJOR_AXIS":"6925.363","ECCENTRICITY":"0.00022070","RA_OF_ASC_NODE":"38.8967","TLE_LINE1":"1 45183U 20012F   23043.70946131  .00017540  00000-0  11936-2 0  9998","EPOCH":"2023-02-12T17:01:37.457184","MEAN_MOTION_DDOT":"0.0000000000000","INCLINATION":"53.0531","GP_ID":"225272652","TIME_SYSTEM":"UTC","PERIAPSIS":"545.700","MEAN_MOTION":"15.06395175","ARG_OF_PERICENTER":"87.9562","EPHEMERIS_TYPE":"0","CLASSIFICATION_TYPE":"U","PERIOD":"95.592","REV_AT_EPOCH":"16522","BSTAR":"0.00119360000000","ELEMENT_SET_NO":"999","CENTER_NAME":"EARTH","LAUNCH_DATE":"2020-02-17","MEAN_MOTION_DOT":"0.00017540","NORAD_CAT_ID":"45183","REF_FRAME":"TEME","DECAY_DATE":null,"OBJECT_TYPE":"PAYLOAD"},{"MEAN_ELEMENT_THEORY":"SGP4","MEAN_ANOMALY":"252.8761","SITE":"AFETR","RCS_SIZE":"LARGE","OBJECT_ID":"2020-012G","APOAPSIS":"547.883","TLE_LINE2":"2 45184  53.0532  19.2409 0000907 107.2327 252.8761 15.06386495165476","FILE":"3787765","COUNTRY_CODE":"US","OBJECT_NAME":"STARLINK-1205","SEMIMAJOR_AXIS":"6925.390","RA_OF_ASC_NODE":"19.2409","ECCENTRICITY":"0.00009070","TLE_LINE1":"1 45184U 20012G   23043.63389349 -.00003840  00000-0 -23914-3 0  9993","MEAN_MOTION_DDOT":"0.0000000000000","EPOCH":"2023-02-12T15:12:48.397536","GP_ID":"225267843","TIME_SYSTEM":"UTC","INCLINATION":"53.0532","CLASSIFICATION_TYPE":"U","ARG_OF_PERICENTER":"107.2327","EPHEMERIS_TYPE":"0","MEAN_MOTION":"15.06386495","PERIAPSIS":"546.627","BSTAR":"-0.00023914000000","REV_AT_EPOCH":"16547","PERIOD":"95.593","ELEMENT_SET_NO":"999","MEAN_MOTION_DOT":"-0.00003840","NORAD_CAT_ID":"45184","LAUNCH_DATE":"2020-02-17","CENTER_NAME":"EARTH","OBJECT_TYPE":"PAYLOAD","REF_FRAME":"TEME","DECAY_DATE":null}];
